{"type": "FeatureCollection", "features": [ {"type": "Feature", "properties": {"norad_id": 34750, "name": "COSMOS 2251 DEB", "group": "cosmos-2251-debris", "lat": 41.971603859597366, "lon": -167.9164655948772, "alt_km": 680.7623666098034, "timestamp": "2025-12-25T14:48:25.167360+00:00", "meta": {"OBJECT_NAME": "COSMOS 2251 DEB", "OBJECT_ID": "1993-036ZU", "EPOCH": "2025-12-24T22:51:44.093088", "MEAN_MOTION": 14.61441345, "ECCENTRICITY": 0.00382771, "INCLINATION": 74.107, "RA_OF_ASC_NODE": 178.4986, "ARG_OF_PERICENTER": 127.323, "MEAN_ANOMALY": 23.3369, "EPHEMERIS_TYPE": 0, "CLASSIFICATION_TYPE": "U", "NORAD_CAT_ID": 34750, "ELEMENT_SET_NO": 999, "REV_AT_EPOCH": 88409, "BSTAR": 0.0012350259, "MEAN_MOTION_DOT": 6.157e-05, "MEAN_MOTION_DDOT": 0}, "tle": {"line1": "1 34750U 93036ZU  25358.95259367  .00006157  00000+0  12350-2 0  9990", "line2": "2 34750  74.1070 178.4986 0038277 127.3230  23.3369 14.61441345884096"}}, "geometry": {"type": "Point", "coordinates": [-167.9164655948772, 41.971603859597366]}}, {"type": "Feature", "properties": {"norad_id": 34752, "name": "COSMOS 2251 DEB", "group": "cosmos-2251-debris", "lat": 1.8220223185507565, "lon": 153.8690244578246, "alt_km": 562.355496113476, "timestamp": "2025-12-25T14:48:25.167369+00:00", "meta": {"OBJECT_NAME": "COSMOS 2251 DEB", "OBJECT_ID": "1993-036ZW", "EPOCH": "2025-12-24T23:37:01.037856", "MEAN_MOTION": 15.00207834, "ECCENTRICITY": 0.00475066, "INCLINATION": 74.0138, "RA_OF_ASC_NODE": 335.6795, "ARG_OF_PERICENTER": 100.1663, "MEAN_ANOMALY": 260.4888, "EPHEMERIS_TYPE": 0, "CLASSIFICATION_TYPE": "U", "NORAD_CAT_ID": 34752, "ELEMENT_SET_NO": 999, "REV_AT_EPOCH": 90033, "BSTAR": 0.0010890441, "MEAN_MOTION_DOT": 0.00013935, "MEAN_MOTION_DDOT": 0}, "tle": {"line1": "1 34752U 93036ZW  25358.98403979  .00013935  00000+0  10890-2 0  9994", "line2": "2 34752  74.0138 335.6795 0047506 100.1663 260.4888 15.00207834900334"}}, "geometry": {"type": "Point", "coordinates": [153.8690244578246, 1.8220223185507565]}}, {"type": "Feature", "properties": {"norad_id": 34754, "name": "COSMOS 2251 DEB", "group": "cosmos-2251-debris", "lat": -73.94027701615279, "lon": 119.61162170439069, "alt_km": 748.8624514887433, "timestamp": "2025-12-25T14:48:25.167398+00:00", "meta": {"OBJECT_NAME": "COSMOS 2251 DEB", "OBJECT_ID": "1993-036ZY", "EPOCH": "2025-12-25T00:55:15.569760", "MEAN_MOTION": 14.40497897, "ECCENTRICITY": 0.0030006, "INCLINATION": 74.0289, "RA_OF_ASC_NODE": 204.8528, "ARG_OF_PERICENTER": 318.6589, "MEAN_ANOMALY": 193.9982, "EPHEMERIS_TYPE": 0, "CLASSIFICATION_TYPE": "U", "NORAD_CAT_ID": 34754, "ELEMENT_SET_NO": 999, "REV_AT_EPOCH": 88310, "BSTAR": 0.0001940579, "MEAN_MOTION_DOT": 5.94e-06, "MEAN_MOTION_DDOT": 0}, "tle": {"line1": "1 34754U 93036ZY  25359.03837465  .00000594  00000+0  19406-3 0  9994", "line2": "2 34754  74.0289 204.8528 0030006 318.6589 193.9982 14.40497897883107"}}, "geometry": {"type": "Point", "coordinates": [119.61162170439069, -73.94027701615279]}}, {"type": "Feature", "properties": {"norad_id": 34755, "name": "COSMOS 2251 DEB", "group": "cosmos-2251-debris", "lat": 8.29185482972422, "lon": 86.91980387298139, "alt_km": 1192.6297545068091, "timestamp": "2025-12-25T14:48:25.167414+00:00", "meta": {"OBJECT_NAME": "COSMOS 2251 DEB", "OBJECT_ID": "1993-036ZZ", "EPOCH": "2025-12-24T04:56:33.131328", "MEAN_MOTION": 13.50577915, "ECCENTRICITY": 0.04079556, "INCLINATION": 73.9256, "RA_OF_ASC_NODE": 271.595, "ARG_OF_PERICENTER": 289.4091, "MEAN_ANOMALY": 228.1586, "EPHEMERIS_TYPE": 0, "CLASSIFICATION_TYPE": "U", "NORAD_CAT_ID": 34755, "ELEMENT_SET_NO": 999, "REV_AT_EPOCH": 82678, "BSTAR": 0.00071802479, "MEAN_MOTION_DOT": 7.5e-06, "MEAN_MOTION_DDOT": 0}, "tle": {"line1": "1 34755U 93036ZZ  25358.20593902  .00000750  00000+0  71802-3 0  9990", "line2": "2 34755  73.9256 271.5950 0407955 289.4091 228.1586 13.50577915826786"}}, "geometry": {"type": "Point", "coordinates": [86.91980387298139, 8.29185482972422]}}, {"type": "Feature", "properties": {"norad_id": 34756, "name": "COSMOS 2251 DEB", "group": "cosmos-2251-debris", "lat": 43.18981766105662, "lon": -112.42857766200783, "alt_km": 1260.8416112477607, "timestamp": "2025-12-25T14:48:25.167424+00:00", "meta": {"OBJECT_NAME": "COSMOS 2251 DEB", "OBJECT_ID": "1993-036AAA", "EPOCH": "2025-12-24T15:18:41.454720", "MEAN_MOTION": 13.67272702, "ECCENTRICITY": 0.0345926, "INCLINATION": 74.0032, "RA_OF_ASC_NODE": 84.8024, "ARG_OF_PERICENTER": 318.0621, "MEAN_ANOMALY": 39.4462, "EPHEMERIS_TYPE": 0, "CLASSIFICATION_TYPE": "U", "NORAD_CAT_ID": 34756, "ELEMENT_SET_NO": 999, "REV_AT_EPOCH": 83584, "BSTAR": 0.0010747811, "MEAN_MOTION_DOT": 1.342e-05, "MEAN_MOTION_DDOT": 0}, "tle": {"line1": "1 34756U 93036AAA 25358.63797980  .00001342  00000+0  10748-2 0  9999", "line2": "2 34756  74.0032  84.8024 0345926 318.0621  39.4462 13.67272702835842"}}, "geometry": {"type": "Point", "coordinates": [-112.42857766200783, 43.18981766105662]}}, {"type": "Feature", "properties": {"norad_id": 34758, "name": "COSMOS 2251 DEB", "group": "cosmos-2251-debris", "lat": -4.673786411624917, "lon": 100.10696840326044, "alt_km": 1275.2470530183564, "timestamp": "2025-12-25T14:48:25.167433+00:00", "meta": {"OBJECT_NAME": "COSMOS 2251 DEB", "OBJECT_ID": "1993-036AAC", "EPOCH": "2025-12-25T01:33:06.423552", "MEAN_MOTION": 13.58115883, "ECCENTRICITY": 0.03824027, "INCLINATION": 74.107, "RA_OF_ASC_NODE": 279.661, "ARG_OF_PERICENTER": 40.5031, "MEAN_ANOMALY": 322.3879, "EPHEMERIS_TYPE": 0, "CLASSIFICATION_TYPE": "U", "NORAD_CAT_ID": 34758, "ELEMENT_SET_NO": 999, "REV_AT_EPOCH": 83077, "BSTAR": 0.0017795069, "MEAN_MOTION_DOT": 2.058e-05, "MEAN_MOTION_DDOT": 0}, "tle": {"line1": "1 34758U 93036AAC 25359.06465768  .00002058  00000+0  17795-2 0  9999", "line2": "2 34758  74.1070 279.6610 0382402  40.5031 322.3879 13.58115883830773"}}, "geometry": {"type": "Point", "coordinates": [100.10696840326044, -4.673786411624917]}}, {"type": "Feature", "properties": {"norad_id": 34760, "name": "COSMOS 2251 DEB", "group": "cosmos-2251-debris", "lat": 39.78226346213878, "lon": -66.85773521700152, "alt_km": 802.2845773864801, "timestamp": "2025-12-25T14:48:25.167443+00:00", "meta": {"OBJECT_NAME": "COSMOS 2251 DEB", "OBJECT_ID": "1993-036AAE", "EPOCH": "2025-12-25T01:09:10.052064", "MEAN_MOTION": 14.19600087, "ECCENTRICITY": 0.00972761, "INCLINATION": 74.0631, "RA_OF_ASC_NODE": 280.3936, "ARG_OF_PERICENTER": 329.8296, "MEAN_ANOMALY": 44.5322, "EPHEMERIS_TYPE": 0, "CLASSIFICATION_TYPE": "U", "NORAD_CAT_ID": 34760, "ELEMENT_SET_NO": 999, "REV_AT_EPOCH": 86863, "BSTAR": 0.00060371794, "MEAN_MOTION_DOT": 1.311e-05, "MEAN_MOTION_DDOT": 0}, "tle": {"line1": "1 34760U 93036AAE 25359.04803301  .00001311  00000+0  60372-3 0  9990", "line2": "2 34760  74.0631 280.3936 0097276 329.8296  44.5322 14.19600087868631"}}, "geometry": {"type": "Point", "coordinates": [-66.85773521700152, 39.78226346213878]}}, {"type": "Feature", "properties": {"norad_id": 34761, "name": "COSMOS 2251 DEB", "group": "cosmos-2251-debris", "lat": 72.44195443091915, "lon": 94.22126130982736, "alt_km": 756.3190277015401, "timestamp": "2025-12-25T14:48:25.167452+00:00", "meta": {"OBJECT_NAME": "COSMOS 2251 DEB", "OBJECT_ID": "1993-036AAF", "EPOCH": "2025-12-24T04:58:02.700480", "MEAN_MOTION": 14.38089541, "ECCENTRICITY": 0.00370278, "INCLINATION": 74.0286, "RA_OF_ASC_NODE": 341.6577, "ARG_OF_PERICENTER": 12.6034, "MEAN_ANOMALY": 347.6036, "EPHEMERIS_TYPE": 0, "CLASSIFICATION_TYPE": "U", "NORAD_CAT_ID": 34761, "ELEMENT_SET_NO": 999, "REV_AT_EPOCH": 87814, "BSTAR": 0.00063419722, "MEAN_MOTION_DOT": 1.911e-05, "MEAN_MOTION_DDOT": 0}, "tle": {"line1": "1 34761U 93036AAF 25358.20697570  .00001911  00000+0  63420-3 0  9990", "line2": "2 34761  74.0286 341.6577 0037027  12.6034 347.6036 14.38089541878148"}}, "geometry": {"type": "Point", "coordinates": [94.22126130982736, 72.44195443091915]}}, {"type": "Feature", "properties": {"norad_id": 34784, "name": "COSMOS 2251 DEB", "group": "cosmos-2251-debris", "lat": -55.70559522047289, "lon": -85.1603225344497, "alt_km": 730.664470058512, "timestamp": "2025-12-25T14:48:25.167461+00:00", "meta": {"OBJECT_NAME": "COSMOS 2251 DEB", "OBJECT_ID": "1993-036AAM", "EPOCH": "2025-12-23T20:20:47.467104", "MEAN_MOTION": 14.60826245, "ECCENTRICITY": 0.004917, "INCLINATION": 74.0068, "RA_OF_ASC_NODE": 303.0929, "ARG_OF_PERICENTER": 109.1167, "MEAN_ANOMALY": 251.5332, "EPHEMERIS_TYPE": 0, "CLASSIFICATION_TYPE": "U", "NORAD_CAT_ID": 34784, "ELEMENT_SET_NO": 999, "REV_AT_EPOCH": 88697, "BSTAR": 0.00043134, "MEAN_MOTION_DOT": 2.114e-05, "MEAN_MOTION_DDOT": 0}, "tle": {"line1": "1 34784U 93036AAM 25357.84777161  .00002114  00000+0  43134-3 0  9995", "line2": "2 34784  74.0068 303.0929 0049170 109.1167 251.5332 14.60826245886972"}}, "geometry": {"type": "Point", "coordinates": [-85.1603225344497, -55.70559522047289]}}, {"type": "Feature", "properties": {"norad_id": 34790, "name": "COSMOS 2251 DEB", "group": "cosmos-2251-debris", "lat": -11.178086725492324, "lon": 43.76004197436096, "alt_km": 810.1760958130299, "timestamp": "2025-12-25T14:48:25.167470+00:00", "meta": {"OBJECT_NAME": "COSMOS 2251 DEB", "OBJECT_ID": "1993-036AAT", "EPOCH": "2025-12-25T01:01:33.132576", "MEAN_MOTION": 14.24669312, "ECCENTRICITY": 0.01004903, "INCLINATION": 74.0525, "RA_OF_ASC_NODE": 221.5545, "ARG_OF_PERICENTER": 280.6019, "MEAN_ANOMALY": 208.2071, "EPHEMERIS_TYPE": 0, "CLASSIFICATION_TYPE": "U", "NORAD_CAT_ID": 34790, "ELEMENT_SET_NO": 999, "REV_AT_EPOCH": 86748, "BSTAR": 0.00053757344, "MEAN_MOTION_DOT": 1.292e-05, "MEAN_MOTION_DDOT": 0}, "tle": {"line1": "1 34790U 93036AAT 25359.04274459  .00001292  00000+0  53757-3 0  9996", "line2": "2 34790  74.0525 221.5545 0100490 280.6019 208.2071 14.24669312867483"}}, "geometry": {"type": "Point", "coordinates": [43.76004197436096, -11.178086725492324]}}]}